{
  "links" : {
    "next" : "https://api.nasa.gov/neo/rest/v1/feed?start_date=2012-05-09&end_date=2012-05-09&detailed=true&api_key=t0TVs3DtDT2H8Oy2Zy8m2eVrNsAVKAexjcZXUckd",
    "prev" : "https://api.nasa.gov/neo/rest/v1/feed?start_date=2012-05-07&end_date=2012-05-07&detailed=true&api_key=t0TVs3DtDT2H8Oy2Zy8m2eVrNsAVKAexjcZXUckd",
    "self" : "https://api.nasa.gov/neo/rest/v1/feed?start_date=2012-05-08&end_date=2012-05-08&detailed=true&api_key=t0TVs3DtDT2H8Oy2Zy8m2eVrNsAVKAexjcZXUckd"
  },
  "element_count" : 5,
  "near_earth_objects" : {
    "2012-05-08" : [ {
      "links" : {
        "self" : "https://api.nasa.gov/neo/rest/v1/neo/3603630?api_key=t0TVs3DtDT2H8Oy2Zy8m2eVrNsAVKAexjcZXUckd"
      },
      "neo_reference_id" : "3603630",
      "name" : "(2012 JQ4)",
      "nasa_jpl_url" : "http://ssd.jpl.nasa.gov/sbdb.cgi?sstr=3603630",
      "absolute_magnitude_h" : 21.9,
      "estimated_diameter" : {
        "kilometers" : {
          "estimated_diameter_min" : 0.1108038821,
          "estimated_diameter_max" : 0.2477650126
        },
        "meters" : {
          "estimated_diameter_min" : 110.8038821264,
          "estimated_diameter_max" : 247.7650126055
        },
        "miles" : {
          "estimated_diameter_min" : 0.068850319,
          "estimated_diameter_max" : 0.1539539936
        },
        "feet" : {
          "estimated_diameter_min" : 363.5298086356,
          "estimated_diameter_max" : 812.8773639568
        }
      },
      "is_potentially_hazardous_asteroid" : false,
      "close_approach_data" : [ {
        "close_approach_date" : "2012-05-08",
        "epoch_date_close_approach" : 1336460400000,
        "relative_velocity" : {
          "kilometers_per_second" : "15.3059964289",
          "kilometers_per_hour" : "55101.5871441944",
          "miles_per_hour" : "34237.9834119024"
        },
        "miss_distance" : {
          "astronomical" : "0.0523345924",
          "lunar" : "20.3581562042",
          "kilometers" : "7829143.5",
          "miles" : "4864804.5"
        },
        "orbiting_body" : "Earth"
      } ],
      "orbital_data" : {
        "orbit_id" : "11",
        "orbit_determination_date" : "2017-04-06 08:49:51",
        "orbit_uncertainty" : "8",
        "minimum_orbit_intersection" : ".0520582",
        "jupiter_tisserand_invariant" : "3.157",
        "epoch_osculation" : "2456063.5",
        "eccentricity" : ".6082163921772066",
        "semi_major_axis" : "2.436452852192173",
        "inclination" : "19.87178109405909",
        "ascending_node_longitude" : "53.54177309852047",
        "orbital_period" : "1389.106183404766",
        "perihelion_distance" : ".9545622887219847",
        "perihelion_argument" : "134.0684046474634",
        "aphelion_distance" : "3.918343415662361",
        "perihelion_time" : "2456023.807245832417",
        "mean_anomaly" : "10.28675249670684",
        "mean_motion" : ".2591594539717783",
        "equinox" : "J2000"
      }
    }, {
      "links" : {
        "self" : "https://api.nasa.gov/neo/rest/v1/neo/3458940?api_key=t0TVs3DtDT2H8Oy2Zy8m2eVrNsAVKAexjcZXUckd"
      },
      "neo_reference_id" : "3458940",
      "name" : "(2009 HU58)",
      "nasa_jpl_url" : "http://ssd.jpl.nasa.gov/sbdb.cgi?sstr=3458940",
      "absolute_magnitude_h" : 19.1,
      "estimated_diameter" : {
        "kilometers" : {
          "estimated_diameter_min" : 0.4023045798,
          "estimated_diameter_max" : 0.8995803882
        },
        "meters" : {
          "estimated_diameter_min" : 402.3045798343,
          "estimated_diameter_max" : 899.5803881691
        },
        "miles" : {
          "estimated_diameter_min" : 0.2499803991,
          "estimated_diameter_max" : 0.5589731654
        },
        "feet" : {
          "estimated_diameter_min" : 1319.8969577037,
          "estimated_diameter_max" : 2951.3793207207
        }
      },
      "is_potentially_hazardous_asteroid" : false,
      "close_approach_data" : [ {
        "close_approach_date" : "2012-05-08",
        "epoch_date_close_approach" : 1336460400000,
        "relative_velocity" : {
          "kilometers_per_second" : "34.5381719376",
          "kilometers_per_hour" : "124337.4189752164",
          "miles_per_hour" : "77258.4368071282"
        },
        "miss_distance" : {
          "astronomical" : "0.3039786502",
          "lunar" : "118.2476959229",
          "kilometers" : "45474560",
          "miles" : "28256582"
        },
        "orbiting_body" : "Earth"
      } ],
      "orbital_data" : {
        "orbit_id" : "16",
        "orbit_determination_date" : "2017-04-06 09:00:42",
        "orbit_uncertainty" : "0",
        "minimum_orbit_intersection" : ".266521",
        "jupiter_tisserand_invariant" : "2.943",
        "epoch_osculation" : "2458000.5",
        "eccentricity" : ".9091079870098941",
        "semi_major_axis" : "2.066930367759415",
        "inclination" : "35.81192274852339",
        "ascending_node_longitude" : "62.54534665139004",
        "orbital_period" : "1085.393448795421",
        "perihelion_distance" : ".187867461836033",
        "perihelion_argument" : "285.6303680264357",
        "aphelion_distance" : "3.945993273682797",
        "perihelion_time" : "2458259.290027621567",
        "mean_anomaly" : "274.1653102410385",
        "mean_motion" : ".3316769604603116",
        "equinox" : "J2000"
      }
    }, {
      "links" : {
        "self" : "https://api.nasa.gov/neo/rest/v1/neo/3602572?api_key=t0TVs3DtDT2H8Oy2Zy8m2eVrNsAVKAexjcZXUckd"
      },
      "neo_reference_id" : "3602572",
      "name" : "(2012 GV11)",
      "nasa_jpl_url" : "http://ssd.jpl.nasa.gov/sbdb.cgi?sstr=3602572",
      "absolute_magnitude_h" : 22.3,
      "estimated_diameter" : {
        "kilometers" : {
          "estimated_diameter_min" : 0.0921626549,
          "estimated_diameter_max" : 0.2060819612
        },
        "meters" : {
          "estimated_diameter_min" : 92.1626548503,
          "estimated_diameter_max" : 206.0819612321
        },
        "miles" : {
          "estimated_diameter_min" : 0.057267201,
          "estimated_diameter_max" : 0.1280533543
        },
        "feet" : {
          "estimated_diameter_min" : 302.370924539,
          "estimated_diameter_max" : 676.1219416887
        }
      },
      "is_potentially_hazardous_asteroid" : false,
      "close_approach_data" : [ {
        "close_approach_date" : "2012-05-08",
        "epoch_date_close_approach" : 1336460400000,
        "relative_velocity" : {
          "kilometers_per_second" : "5.8632846164",
          "kilometers_per_hour" : "21107.8246191199",
          "miles_per_hour" : "13115.5813584748"
        },
        "miss_distance" : {
          "astronomical" : "0.2562326943",
          "lunar" : "99.6745223999",
          "kilometers" : "38331868",
          "miles" : "23818318"
        },
        "orbiting_body" : "Earth"
      } ],
      "orbital_data" : {
        "orbit_id" : "26",
        "orbit_determination_date" : "2017-04-06 08:50:08",
        "orbit_uncertainty" : "3",
        "minimum_orbit_intersection" : ".0752498",
        "jupiter_tisserand_invariant" : "5.850",
        "epoch_osculation" : "2458000.5",
        "eccentricity" : ".2157184322093987",
        "semi_major_axis" : "1.045043524692945",
        "inclination" : "5.403695674733137",
        "ascending_node_longitude" : "164.6694220022337",
        "orbital_period" : "390.2114374413899",
        "perihelion_distance" : ".8196083739555992",
        "perihelion_argument" : "217.5177071850167",
        "aphelion_distance" : "1.270478675430291",
        "perihelion_time" : "2458164.262098979104",
        "mean_anomaly" : "208.9168948531081",
        "mean_motion" : ".9225767505958159",
        "equinox" : "J2000"
      }
    } ]
  }
}